STARLINK-37004          
1 68089U 26042W   26070.91667824 -.01503409  68139-3 -32526-2 0  9997
2 68089  53.1597 183.7922 0000850  66.9840 252.9913 15.97799274  2419
STARLINK-36320          
1 68090U 26042X   26071.08334490 -.01519872  69341-3 -33319-2 0  9996
2 68090  53.1602 182.9243 0000855  71.4506 132.6630 15.97563872  2424
STARLINK-36324          
1 68091U 26042Y   26071.08334490 -.01528780  70004-3 -33731-2 0  9991
2 68091  53.1598 182.9291 0001059  74.3437 127.4178 15.97448875  2428
STARLINK-36896          
1 68092U 26042Z   26071.08334490 -.01522707  69662-3 -33172-2 0  9992
2 68092  53.1598 182.9198 0000949  72.3651 133.9174 15.97677647  2438
STARLINK-36251          
1 68093U 26042AA  26071.08334490 -.01513364  69044-3 -32554-2 0  9999
2 68093  53.1598 182.9103 0000884  72.5417 138.3031 15.97903934  2426
STARLINK-36787          
1 68094U 26042AB  26071.08334490 -.01533188  70889-3 -32555-2 0  9996
2 68094  53.1596 182.8943 0001023  83.4047 134.9509 15.98139438  2425
STARLINK-36790          
1 68095U 26042AC  26071.08334490 -.01515469  69136-3 -32811-2 0  9997
2 68095  53.1598 182.9153 0000940  82.9860 125.4347 15.97787887  2427
STARLINK-36328          
1 68096U 26042AD  26071.08334490 -.01531195  70811-3 -32294-2 0  9999
2 68096  53.1600 182.8885 0000848  71.1103 149.9626 15.98260186  2420
STARLINK-36853          
1 68097U 26042AE  26071.08334490 -.01559577  73068-3 -33309-2 0  9999
2 68097  53.1598 182.8994 0000932  80.8595 135.0593 15.98039415  2433
GLOBAL-34               
1 68098U 26043A   26070.43108057  .00014658  00000+0  47783-3 0  9994
2 68098  42.0218  65.4469 0006636 299.6706  60.3470 15.31549439   839
ELECTRON R/B            
1 68099U 26043B   26071.21545021  .06273190  83400-5  12149-2 0  9990
2 68099  42.0078  57.2826 0094199 310.6407  48.6299 16.19221558   994
ELECTRON KICK STAGE R/B 
1 68100U 26043C   26070.34963987  .04713854  83716-5  17422-2 0  9994
2 68100  42.1155  63.0829 0106112  62.7897 298.3738 16.10890104   845
