CCSDS_OMM_VERS = 2.0
CREATION_DATE  = 
ORIGINATOR     = 

OBJECT_NAME    = STARLINK-37004
OBJECT_ID      = 2026-042W
CENTER_NAME    = EARTH
REF_FRAME      = TEME
TIME_SYSTEM    = UTC
MEAN_ELEMENT_THEORY = SGP/SGP4

EPOCH          = 2026-03-11T22:00:00.999936
MEAN_MOTION    = 15.97799274
ECCENTRICITY   = .00008506
INCLINATION    = 53.1597
RA_OF_ASC_NODE = 183.7922
ARG_OF_PERICENTER = 66.9840
MEAN_ANOMALY   = 252.9913

EPHEMERIS_TYPE = 0
CLASSIFICATION_TYPE = U
NORAD_CAT_ID   = 68089
ELEMENT_SET_NO = 999
REV_AT_EPOCH   = 241
BSTAR          = -.32525651E-2
MEAN_MOTION_DOT = -.1503409E-1
MEAN_MOTION_DDOT = .68138662E-3

CCSDS_OMM_VERS = 2.0
CREATION_DATE  = 
ORIGINATOR     = 

OBJECT_NAME    = STARLINK-36320
OBJECT_ID      = 2026-042X
CENTER_NAME    = EARTH
REF_FRAME      = TEME
TIME_SYSTEM    = UTC
MEAN_ELEMENT_THEORY = SGP/SGP4

EPOCH          = 2026-03-12T02:00:00.999360
MEAN_MOTION    = 15.97563872
ECCENTRICITY   = .0000855
INCLINATION    = 53.1602
RA_OF_ASC_NODE = 182.9243
ARG_OF_PERICENTER = 71.4506
MEAN_ANOMALY   = 132.6630

EPHEMERIS_TYPE = 0
CLASSIFICATION_TYPE = U
NORAD_CAT_ID   = 68090
ELEMENT_SET_NO = 999
REV_AT_EPOCH   = 242
BSTAR          = -.33319E-2
MEAN_MOTION_DOT = -.1519872E-1
MEAN_MOTION_DDOT = .69341E-3

CCSDS_OMM_VERS = 2.0
CREATION_DATE  = 
ORIGINATOR     = 

OBJECT_NAME    = STARLINK-36324
OBJECT_ID      = 2026-042Y
CENTER_NAME    = EARTH
REF_FRAME      = TEME
TIME_SYSTEM    = UTC
MEAN_ELEMENT_THEORY = SGP/SGP4

EPOCH          = 2026-03-12T02:00:00.999360
MEAN_MOTION    = 15.97448875
ECCENTRICITY   = .0001059
INCLINATION    = 53.1598
RA_OF_ASC_NODE = 182.9291
ARG_OF_PERICENTER = 74.3437
MEAN_ANOMALY   = 127.4178

EPHEMERIS_TYPE = 0
CLASSIFICATION_TYPE = U
NORAD_CAT_ID   = 68091
ELEMENT_SET_NO = 999
REV_AT_EPOCH   = 242
BSTAR          = -.33731E-2
MEAN_MOTION_DOT = -.152878E-1
MEAN_MOTION_DDOT = .70004E-3

CCSDS_OMM_VERS = 2.0
CREATION_DATE  = 
ORIGINATOR     = 

OBJECT_NAME    = STARLINK-36896
OBJECT_ID      = 2026-042Z
CENTER_NAME    = EARTH
REF_FRAME      = TEME
TIME_SYSTEM    = UTC
MEAN_ELEMENT_THEORY = SGP/SGP4

EPOCH          = 2026-03-12T02:00:00.999360
MEAN_MOTION    = 15.97677647
ECCENTRICITY   = .0000949
INCLINATION    = 53.1598
RA_OF_ASC_NODE = 182.9198
ARG_OF_PERICENTER = 72.3651
MEAN_ANOMALY   = 133.9174

EPHEMERIS_TYPE = 0
CLASSIFICATION_TYPE = U
NORAD_CAT_ID   = 68092
ELEMENT_SET_NO = 999
REV_AT_EPOCH   = 243
BSTAR          = -.33172E-2
MEAN_MOTION_DOT = -.1522707E-1
MEAN_MOTION_DDOT = .69662E-3

CCSDS_OMM_VERS = 2.0
CREATION_DATE  = 
ORIGINATOR     = 

OBJECT_NAME    = STARLINK-36251
OBJECT_ID      = 2026-042AA
CENTER_NAME    = EARTH
REF_FRAME      = TEME
TIME_SYSTEM    = UTC
MEAN_ELEMENT_THEORY = SGP/SGP4

EPOCH          = 2026-03-12T02:00:00.999360
MEAN_MOTION    = 15.97903934
ECCENTRICITY   = .0000884
INCLINATION    = 53.1598
RA_OF_ASC_NODE = 182.9103
ARG_OF_PERICENTER = 72.5417
MEAN_ANOMALY   = 138.3031

EPHEMERIS_TYPE = 0
CLASSIFICATION_TYPE = U
NORAD_CAT_ID   = 68093
ELEMENT_SET_NO = 999
REV_AT_EPOCH   = 242
BSTAR          = -.32554E-2
MEAN_MOTION_DOT = -.1513364E-1
MEAN_MOTION_DDOT = .69044E-3

CCSDS_OMM_VERS = 2.0
CREATION_DATE  = 
ORIGINATOR     = 

OBJECT_NAME    = STARLINK-36787
OBJECT_ID      = 2026-042AB
CENTER_NAME    = EARTH
REF_FRAME      = TEME
TIME_SYSTEM    = UTC
MEAN_ELEMENT_THEORY = SGP/SGP4

EPOCH          = 2026-03-12T02:00:00.999360
MEAN_MOTION    = 15.98139438
ECCENTRICITY   = .0001023
INCLINATION    = 53.1596
RA_OF_ASC_NODE = 182.8943
ARG_OF_PERICENTER = 83.4047
MEAN_ANOMALY   = 134.9509

EPHEMERIS_TYPE = 0
CLASSIFICATION_TYPE = U
NORAD_CAT_ID   = 68094
ELEMENT_SET_NO = 999
REV_AT_EPOCH   = 242
BSTAR          = -.32555E-2
MEAN_MOTION_DOT = -.1533188E-1
MEAN_MOTION_DDOT = .70889E-3

CCSDS_OMM_VERS = 2.0
CREATION_DATE  = 
ORIGINATOR     = 

OBJECT_NAME    = STARLINK-36790
OBJECT_ID      = 2026-042AC
CENTER_NAME    = EARTH
REF_FRAME      = TEME
TIME_SYSTEM    = UTC
MEAN_ELEMENT_THEORY = SGP/SGP4

EPOCH          = 2026-03-12T02:00:00.999360
MEAN_MOTION    = 15.97787887
ECCENTRICITY   = .000094
INCLINATION    = 53.1598
RA_OF_ASC_NODE = 182.9153
ARG_OF_PERICENTER = 82.9860
MEAN_ANOMALY   = 125.4347

EPHEMERIS_TYPE = 0
CLASSIFICATION_TYPE = U
NORAD_CAT_ID   = 68095
ELEMENT_SET_NO = 999
REV_AT_EPOCH   = 242
BSTAR          = -.32811E-2
MEAN_MOTION_DOT = -.1515469E-1
MEAN_MOTION_DDOT = .69136E-3

CCSDS_OMM_VERS = 2.0
CREATION_DATE  = 
ORIGINATOR     = 

OBJECT_NAME    = STARLINK-36328
OBJECT_ID      = 2026-042AD
CENTER_NAME    = EARTH
REF_FRAME      = TEME
TIME_SYSTEM    = UTC
MEAN_ELEMENT_THEORY = SGP/SGP4

EPOCH          = 2026-03-12T02:00:00.999360
MEAN_MOTION    = 15.98260186
ECCENTRICITY   = .0000848
INCLINATION    = 53.1600
RA_OF_ASC_NODE = 182.8885
ARG_OF_PERICENTER = 71.1103
MEAN_ANOMALY   = 149.9626

EPHEMERIS_TYPE = 0
CLASSIFICATION_TYPE = U
NORAD_CAT_ID   = 68096
ELEMENT_SET_NO = 999
REV_AT_EPOCH   = 242
BSTAR          = -.32294E-2
MEAN_MOTION_DOT = -.1531195E-1
MEAN_MOTION_DDOT = .70811E-3

CCSDS_OMM_VERS = 2.0
CREATION_DATE  = 
ORIGINATOR     = 

OBJECT_NAME    = STARLINK-36853
OBJECT_ID      = 2026-042AE
CENTER_NAME    = EARTH
REF_FRAME      = TEME
TIME_SYSTEM    = UTC
MEAN_ELEMENT_THEORY = SGP/SGP4

EPOCH          = 2026-03-12T02:00:00.999360
MEAN_MOTION    = 15.98039415
ECCENTRICITY   = .0000932
INCLINATION    = 53.1598
RA_OF_ASC_NODE = 182.8994
ARG_OF_PERICENTER = 80.8595
MEAN_ANOMALY   = 135.0593

EPHEMERIS_TYPE = 0
CLASSIFICATION_TYPE = U
NORAD_CAT_ID   = 68097
ELEMENT_SET_NO = 999
REV_AT_EPOCH   = 243
BSTAR          = -.33309E-2
MEAN_MOTION_DOT = -.1559577E-1
MEAN_MOTION_DDOT = .73068E-3

CCSDS_OMM_VERS = 2.0
CREATION_DATE  = 
ORIGINATOR     = 

OBJECT_NAME    = GLOBAL-34
OBJECT_ID      = 2026-043A
CENTER_NAME    = EARTH
REF_FRAME      = TEME
TIME_SYSTEM    = UTC
MEAN_ELEMENT_THEORY = SGP/SGP4

EPOCH          = 2026-03-11T10:20:45.361248
MEAN_MOTION    = 15.31549439
ECCENTRICITY   = .0006636
INCLINATION    = 42.0218
RA_OF_ASC_NODE = 65.4469
ARG_OF_PERICENTER = 299.6706
MEAN_ANOMALY   = 60.3470

EPHEMERIS_TYPE = 0
CLASSIFICATION_TYPE = U
NORAD_CAT_ID   = 68098
ELEMENT_SET_NO = 999
REV_AT_EPOCH   = 83
BSTAR          = .47783018E-3
MEAN_MOTION_DOT = .14658E-3
MEAN_MOTION_DDOT = 0

CCSDS_OMM_VERS = 2.0
CREATION_DATE  = 
ORIGINATOR     = 

OBJECT_NAME    = ELECTRON R/B
OBJECT_ID      = 2026-043B
CENTER_NAME    = EARTH
REF_FRAME      = TEME
TIME_SYSTEM    = UTC
MEAN_ELEMENT_THEORY = SGP/SGP4

EPOCH          = 2026-03-12T05:10:14.898144
MEAN_MOTION    = 16.19221558
ECCENTRICITY   = .0094199
INCLINATION    = 42.0078
RA_OF_ASC_NODE = 57.2826
ARG_OF_PERICENTER = 310.6407
MEAN_ANOMALY   = 48.6299

EPHEMERIS_TYPE = 0
CLASSIFICATION_TYPE = U
NORAD_CAT_ID   = 68099
ELEMENT_SET_NO = 999
REV_AT_EPOCH   = 99
BSTAR          = .12149E-2
MEAN_MOTION_DOT = .627319E-1
MEAN_MOTION_DDOT = .834E-5

CCSDS_OMM_VERS = 2.0
CREATION_DATE  = 
ORIGINATOR     = 

OBJECT_NAME    = ELECTRON KICK STAGE R/B
OBJECT_ID      = 2026-043C
CENTER_NAME    = EARTH
REF_FRAME      = TEME
TIME_SYSTEM    = UTC
MEAN_ELEMENT_THEORY = SGP/SGP4

EPOCH          = 2026-03-11T08:23:28.884768
MEAN_MOTION    = 16.10890104
ECCENTRICITY   = .01061123
INCLINATION    = 42.1155
RA_OF_ASC_NODE = 63.0829
ARG_OF_PERICENTER = 62.7897
MEAN_ANOMALY   = 298.3738

EPHEMERIS_TYPE = 0
CLASSIFICATION_TYPE = U
NORAD_CAT_ID   = 68100
ELEMENT_SET_NO = 999
REV_AT_EPOCH   = 84
BSTAR          = .17421916E-2
MEAN_MOTION_DOT = .4713854E-1
MEAN_MOTION_DDOT = .8371636E-5

